start=new Date('2022-04-18T00:00:00.000Z').valueOf();
sats=[{"ELEMENT_SET_NO":"999","DECAY_DATE":null,"FILE":"3405839","GP_ID":"201495764","INCLINATION":"53.0540","MEAN_ELEMENT_THEORY":"SGP4","MEAN_ANOMALY":"296.6709","PERIAPSIS":"545.965","OBJECT_ID":"2020-070AC","ECCENTRICITY":"0.00017980","MEAN_MOTION_DDOT":"0.0000000000000","EPHEMERIS_TYPE":"0","ARG_OF_PERICENTER":"63.4464","RA_OF_ASC_NODE":"65.6805","OBJECT_TYPE":"PAYLOAD","EPOCH":"2022-04-17T14:02:45.759840","TLE_LINE1":"1 46558U 20070AC  22107.58525185  .00001385  00000-0  11189-3 0  9998","SITE":"AFETR","CLASSIFICATION_TYPE":"U","OBJECT_NAME":"STARLINK-1680","RCS_SIZE":"LARGE","MEAN_MOTION":"15.06401149","BSTAR":"0.00011189000000","APOAPSIS":"548.455","NORAD_CAT_ID":"46558","TIME_SYSTEM":"UTC","LAUNCH_DATE":"2020-10-06","SEMIMAJOR_AXIS":"6925.345","REV_AT_EPOCH":"8534","COUNTRY_CODE":"US","PERIOD":"95.592","REF_FRAME":"TEME","MEAN_MOTION_DOT":"0.00001385","TLE_LINE2":"2 46558  53.0540  65.6805 0001798  63.4464 296.6709 15.06401149 85349","CENTER_NAME":"EARTH"},{"ELEMENT_SET_NO":"999","MEAN_ELEMENT_THEORY":"SGP4","INCLINATION":"53.0559","GP_ID":"201465302","DECAY_DATE":null,"FILE":"3405596","PERIAPSIS":"546.235","MEAN_ANOMALY":"297.8761","MEAN_MOTION_DDOT":"0.0000000000000","ECCENTRICITY":"0.00014290","OBJECT_ID":"2020-070AD","OBJECT_TYPE":"PAYLOAD","RA_OF_ASC_NODE":"50.7429","ARG_OF_PERICENTER":"62.2372","EPHEMERIS_TYPE":"0","TLE_LINE1":"1 46559U 20070AD  22107.57373577  .00001154  00000-0  96351-4 0  9993","EPOCH":"2022-04-17T13:46:10.770528","CLASSIFICATION_TYPE":"U","SITE":"AFETR","RCS_SIZE":"LARGE","OBJECT_NAME":"STARLINK-1681","MEAN_MOTION":"15.06396452","BSTAR":"0.00009635100000","TIME_SYSTEM":"UTC","LAUNCH_DATE":"2020-10-06","NORAD_CAT_ID":"46559","APOAPSIS":"548.214","SEMIMAJOR_AXIS":"6925.359","REV_AT_EPOCH":"8557","PERIOD":"95.592","COUNTRY_CODE":"US","MEAN_MOTION_DOT":"0.00001154","REF_FRAME":"TEME","TLE_LINE2":"2 46559  53.0559  50.7429 0001429  62.2372 297.8761 15.06396452 85579","CENTER_NAME":"EARTH"},{"SEMIMAJOR_AXIS":"6925.400","REV_AT_EPOCH":"8537","TIME_SYSTEM":"UTC","LAUNCH_DATE":"2020-10-06","NORAD_CAT_ID":"46560","APOAPSIS":"548.319","BSTAR":"0.00001261800000","MEAN_MOTION":"15.06383326","CENTER_NAME":"EARTH","TLE_LINE2":"2 46560  53.0546  65.6187 0001522  60.3548 299.7592 15.06383326 85378","MEAN_MOTION_DOT":"-0.00000094","REF_FRAME":"TEME","PERIOD":"95.593","COUNTRY_CODE":"US","ECCENTRICITY":"0.00015220","MEAN_MOTION_DDOT":"0.0000000000000","OBJECT_ID":"2020-070AE","PERIAPSIS":"546.211","MEAN_ANOMALY":"299.7592","INCLINATION":"53.0546","MEAN_ELEMENT_THEORY":"SGP4","FILE":"3405839","DECAY_DATE":null,"GP_ID":"201494763","ELEMENT_SET_NO":"999","RCS_SIZE":"LARGE","OBJECT_NAME":"STARLINK-1706","CLASSIFICATION_TYPE":"U","SITE":"AFETR","EPOCH":"2022-04-17T14:24:00.996192","TLE_LINE1":"1 46560U 20070AE  22107.60001153 -.00000094  00000-0  12618-4 0  9994","RA_OF_ASC_NODE":"65.6187","ARG_OF_PERICENTER":"60.3548","OBJECT_TYPE":"PAYLOAD","EPHEMERIS_TYPE":"0"},{"RCS_SIZE":"LARGE","OBJECT_NAME":"STARLINK-1709","CLASSIFICATION_TYPE":"U","SITE":"AFETR","TLE_LINE1":"1 46561U 20070AF  22107.61473823  .00003690  00000-0  26648-3 0  9994","EPOCH":"2022-04-17T14:45:13.383072","ARG_OF_PERICENTER":"57.2976","RA_OF_ASC_NODE":"65.5723","OBJECT_TYPE":"PAYLOAD","EPHEMERIS_TYPE":"0","ECCENTRICITY":"0.00015850","MEAN_MOTION_DDOT":"0.0000000000000","OBJECT_ID":"2020-070AF","PERIAPSIS":"546.105","MEAN_ANOMALY":"302.8166","INCLINATION":"53.0553","MEAN_ELEMENT_THEORY":"SGP4","DECAY_DATE":null,"FILE":"3405839","GP_ID":"201495013","ELEMENT_SET_NO":"999","CENTER_NAME":"EARTH","TLE_LINE2":"2 46561  53.0553  65.5723 0001585  57.2976 302.8166 15.06403607 85379","MEAN_MOTION_DOT":"0.00003690","REF_FRAME":"TEME","PERIOD":"95.592","COUNTRY_CODE":"US","SEMIMAJOR_AXIS":"6925.338","REV_AT_EPOCH":"8537","TIME_SYSTEM":"UTC","LAUNCH_DATE":"2020-10-06","NORAD_CAT_ID":"46561","APOAPSIS":"548.300","BSTAR":"0.00026648000000","MEAN_MOTION":"15.06403607"},{"TLE_LINE2":"2 46562  53.0566  59.3667 0001637  77.8333 282.2839 15.06385013 85485","CENTER_NAME":"EARTH","COUNTRY_CODE":"US","PERIOD":"95.593","REF_FRAME":"TEME","MEAN_MOTION_DOT":"0.00003574","APOAPSIS":"548.393","NORAD_CAT_ID":"46562","LAUNCH_DATE":"2020-10-06","TIME_SYSTEM":"UTC","SEMIMAJOR_AXIS":"6925.394","REV_AT_EPOCH":"8548","MEAN_MOTION":"15.06385013","BSTAR":"0.00025883000000","SITE":"AFETR","CLASSIFICATION_TYPE":"U","OBJECT_NAME":"STARLINK-1714","RCS_SIZE":"LARGE","EPHEMERIS_TYPE":"0","OBJECT_TYPE":"PAYLOAD","RA_OF_ASC_NODE":"59.3667","ARG_OF_PERICENTER":"77.8333","TLE_LINE1":"1 46562U 20070AG  22107.88244152  .00003574  00000-0  25883-3 0  9996","EPOCH":"2022-04-17T21:10:42.947328","MEAN_ANOMALY":"282.2839","PERIAPSIS":"546.126","OBJECT_ID":"2020-070AG","MEAN_MOTION_DDOT":"0.0000000000000","ECCENTRICITY":"0.00016370","ELEMENT_SET_NO":"999","GP_ID":"201495273","DECAY_DATE":null,"FILE":"3405839","MEAN_ELEMENT_THEORY":"SGP4","INCLINATION":"53.0566"},{"CLASSIFICATION_TYPE":"U","SITE":"AFETR","RCS_SIZE":"LARGE","OBJECT_NAME":"STARLINK-1730","RA_OF_ASC_NODE":"59.4402","ARG_OF_PERICENTER":"56.6847","OBJECT_TYPE":"PAYLOAD","EPHEMERIS_TYPE":"0","EPOCH":"2022-04-17T20:44:11.024736","TLE_LINE1":"1 46563U 20070AH  22107.86401649 -.00002056  00000-0 -11918-3 0  9991","PERIAPSIS":"545.972","MEAN_ANOMALY":"303.4318","ECCENTRICITY":"0.00018380","MEAN_MOTION_DDOT":"0.0000000000000","OBJECT_ID":"2020-070AH","ELEMENT_SET_NO":"999","INCLINATION":"53.0564","MEAN_ELEMENT_THEORY":"SGP4","FILE":"3405839","DECAY_DATE":null,"GP_ID":"201496013","TLE_LINE2":"2 46563  53.0564  59.4402 0001838  56.6847 303.4318 15.06389657 85486","CENTER_NAME":"EARTH","PERIOD":"95.593","COUNTRY_CODE":"US","MEAN_MOTION_DOT":"-0.00002056","REF_FRAME":"TEME","LAUNCH_DATE":"2020-10-06","TIME_SYSTEM":"UTC","NORAD_CAT_ID":"46563","APOAPSIS":"548.518","SEMIMAJOR_AXIS":"6925.380","REV_AT_EPOCH":"8548","MEAN_MOTION":"15.06389657","BSTAR":"-0.00011918000000"},{"BSTAR":"-0.00007696000000","MEAN_MOTION":"15.06388042","REV_AT_EPOCH":"8549","SEMIMAJOR_AXIS":"6925.385","APOAPSIS":"548.260","NORAD_CAT_ID":"46564","LAUNCH_DATE":"2020-10-06","TIME_SYSTEM":"UTC","REF_FRAME":"TEME","MEAN_MOTION_DOT":"-0.00001427","COUNTRY_CODE":"US","PERIOD":"95.593","CENTER_NAME":"EARTH","TLE_LINE2":"2 46564  53.0543  59.2297 0001458  47.0905 313.0206 15.06388042 85492","DECAY_DATE":null,"FILE":"3405839","GP_ID":"201494272","INCLINATION":"53.0543","MEAN_ELEMENT_THEORY":"SGP4","ELEMENT_SET_NO":"999","OBJECT_ID":"2020-070AJ","ECCENTRICITY":"0.00014580","MEAN_MOTION_DDOT":"0.0000000000000","MEAN_ANOMALY":"313.0206","PERIAPSIS":"546.240","TLE_LINE1":"1 46564U 20070AJ  22107.91193628 -.00001427  00000-0 -76960-4 0  9993","EPOCH":"2022-04-17T21:53:11.294592","EPHEMERIS_TYPE":"0","ARG_OF_PERICENTER":"47.0905","RA_OF_ASC_NODE":"59.2297","OBJECT_TYPE":"PAYLOAD","OBJECT_NAME":"STARLINK-1733","RCS_SIZE":"LARGE","SITE":"AFETR","CLASSIFICATION_TYPE":"U"},{"DECAY_DATE":null,"FILE":"3405839","GP_ID":"201494522","INCLINATION":"53.0575","MEAN_ELEMENT_THEORY":"SGP4","ELEMENT_SET_NO":"999","OBJECT_ID":"2020-070AK","ECCENTRICITY":"0.00018810","MEAN_MOTION_DDOT":"0.0000000000000","MEAN_ANOMALY":"300.5031","PERIAPSIS":"545.917","EPOCH":"2022-04-17T21:21:19.351584","TLE_LINE1":"1 46565U 20070AK  22107.88980731  .00000036  00000-0  21328-4 0  9990","EPHEMERIS_TYPE":"0","ARG_OF_PERICENTER":"59.6144","RA_OF_ASC_NODE":"59.3336","OBJECT_TYPE":"PAYLOAD","OBJECT_NAME":"STARLINK-1735","RCS_SIZE":"LARGE","SITE":"AFETR","CLASSIFICATION_TYPE":"U","BSTAR":"0.00002132800000","MEAN_MOTION":"15.06397904","SEMIMAJOR_AXIS":"6925.355","REV_AT_EPOCH":"8548","NORAD_CAT_ID":"46565","APOAPSIS":"548.523","TIME_SYSTEM":"UTC","LAUNCH_DATE":"2020-10-06","REF_FRAME":"TEME","MEAN_MOTION_DOT":"0.00000036","COUNTRY_CODE":"US","PERIOD":"95.592","CENTER_NAME":"EARTH","TLE_LINE2":"2 46565  53.0575  59.3336 0001881  59.6144 300.5031 15.06397904 85480"},{"BSTAR":"0.00002014500000","MEAN_MOTION":"15.06392312","SEMIMAJOR_AXIS":"6925.372","REV_AT_EPOCH":"8548","NORAD_CAT_ID":"46566","APOAPSIS":"548.450","LAUNCH_DATE":"2020-10-06","TIME_SYSTEM":"UTC","REF_FRAME":"TEME","MEAN_MOTION_DOT":"0.00000018","COUNTRY_CODE":"US","PERIOD":"95.593","CENTER_NAME":"EARTH","TLE_LINE2":"2 46566  53.0542  59.3825 0001751  51.4156 308.6990 15.06392312 85488","GP_ID":"201495765","FILE":"3405839","DECAY_DATE":null,"MEAN_ELEMENT_THEORY":"SGP4","INCLINATION":"53.0542","ELEMENT_SET_NO":"999","OBJECT_ID":"2020-070AL","MEAN_MOTION_DDOT":"0.0000000000000","ECCENTRICITY":"0.00017510","MEAN_ANOMALY":"308.6990","PERIAPSIS":"546.024","TLE_LINE1":"1 46566U 20070AL  22107.87506342  .00000018  00000-0  20145-4 0  9998","EPOCH":"2022-04-17T21:00:05.479488","EPHEMERIS_TYPE":"0","OBJECT_TYPE":"PAYLOAD","RA_OF_ASC_NODE":"59.3825","ARG_OF_PERICENTER":"51.4156","OBJECT_NAME":"STARLINK-1740","RCS_SIZE":"LARGE","SITE":"AFETR","CLASSIFICATION_TYPE":"U"},{"PERIOD":"95.593","COUNTRY_CODE":"US","MEAN_MOTION_DOT":"-0.00000303","REF_FRAME":"TEME","TLE_LINE2":"2 46567  53.0543  59.2616 0001614  62.0351 298.0801 15.06390858 85497","CENTER_NAME":"EARTH","MEAN_MOTION":"15.06390858","BSTAR":"-0.00000142370000","LAUNCH_DATE":"2020-10-06","TIME_SYSTEM":"UTC","APOAPSIS":"548.359","NORAD_CAT_ID":"46567","REV_AT_EPOCH":"8549","SEMIMAJOR_AXIS":"6925.377","OBJECT_TYPE":"PAYLOAD","ARG_OF_PERICENTER":"62.0351","RA_OF_ASC_NODE":"59.2616","EPHEMERIS_TYPE":"0","TLE_LINE1":"1 46567U 20070AM  22107.90454900 -.00000303  00000-0 -14237-5 0  9990","EPOCH":"2022-04-17T21:42:33.033600","CLASSIFICATION_TYPE":"U","SITE":"AFETR","RCS_SIZE":"LARGE","OBJECT_NAME":"STARLINK-1741","ELEMENT_SET_NO":"999","MEAN_ELEMENT_THEORY":"SGP4","INCLINATION":"53.0543","GP_ID":"201495522","DECAY_DATE":null,"FILE":"3405839","PERIAPSIS":"546.124","MEAN_ANOMALY":"298.0801","MEAN_MOTION_DDOT":"0.0000000000000","ECCENTRICITY":"0.00016140","OBJECT_ID":"2020-070AM"}];
